      2.10          N: GNSS NAV DATA                        RINEX VERSION / TYPE
fic2rin                                 10/21/2018 00:21:37 PGM / RUN BY / DATE
                                                            END OF HEADER
 9 18 10 20  4  0  0.0 4.991712048650e-04-2.728484105319e-12 0.000000000000e+00
    4.400000000000e+01 3.696875000000e+01 4.586976780280e-09 1.713893978906e-01
    1.726672053337e-06 1.255610375665e-03 1.007877290249e-05 5.153808090210e+03
    5.328000000000e+05 2.235174179077e-08 3.102713178652e+00 9.313225746155e-09
    9.530520643411e-01 1.792500000000e+02 1.691244956855e+00-8.044620805033e-09
    4.064455015151e-10 1.000000000000e+00 2.023000000000e+03 0.000000000000e+00
    2.400000000000e+00 0.000000000000e+00 1.396983861923e-09 4.400000000000e+01
    5.256060000000e+05 4.000000000000e+00
 7 18 10 20  4  0  0.0 1.036329194903e-04-6.707523425575e-12 0.000000000000e+00
    9.300000000000e+01 1.690625000000e+01 4.987350600314e-09-3.126464076452e+00
    7.804483175278e-07 1.209044433199e-02 4.705041646957e-06 5.153631456375e+03
    5.328000000000e+05-5.774199962616e-08-2.103551637826e+00-1.676380634308e-07
    9.571982433547e-01 2.899062500000e+02-2.484385590781e+00-8.161411384115e-09
    1.750072897561e-11 1.000000000000e+00 2.023000000000e+03 0.000000000000e+00
    3.400000000000e+00 0.000000000000e+00-1.117587089539e-08 9.300000000000e+01
    5.256060000000e+05 4.000000000000e+00
 6 18 10 20  4  0  0.0 3.469684161246e-04-5.798028723802e-12 0.000000000000e+00
    6.200000000000e+01-1.003125000000e+01 4.544117852177e-09-2.157752856530e+00
   -5.923211574554e-07 1.005012774840e-03 3.512948751450e-06 5.153717966080e+03
    5.328000000000e+05 7.823109626770e-08 1.018364340425e+00 8.009374141693e-08
    9.724096026374e-01 3.203125000000e+02-1.188791650241e+00-8.260344076487e-09
   -2.928693420408e-11 1.000000000000e+00 2.023000000000e+03 0.000000000000e+00
    2.400000000000e+00 0.000000000000e+00 4.656612873077e-09 6.200000000000e+01
    5.256060000000e+05 4.000000000000e+00
28 18 10 20  4  0  0.0 7.506152614951e-04 1.932676241267e-12 0.000000000000e+00
    1.100000000000e+01-2.428125000000e+01 4.080884270924e-09 6.045280630318e-01
   -1.270323991776e-06 1.963449711911e-02 1.022033393383e-05 5.153694820404e+03
    5.328000000000e+05-2.402812242508e-07-9.843359296339e-01-1.247972249985e-07
    9.843735222398e-01 2.022812500000e+02-1.507529725133e+00-8.153911071697e-09
   -4.396611707954e-10 1.000000000000e+00 2.023000000000e+03 0.000000000000e+00
    2.400000000000e+00 0.000000000000e+00-1.117587089539e-08 1.100000000000e+01
    5.256060000000e+05 4.000000000000e+00
22 18 10 20  4  0  0.0-5.515636876225e-04-1.023181539495e-11 0.000000000000e+00
    6.800000000000e+01-8.271875000000e+01 5.205216818174e-09-1.056502174413e+00
   -4.179775714874e-06 7.009150460362e-03 8.968636393547e-06 5.153686155319e+03
    5.328000000000e+05-7.823109626770e-08 2.004863418266e+00 9.685754776001e-08
    9.257166368880e-01 1.884687500000e+02-1.472688468780e+00-8.533212585413e-09
   -1.489347751598e-10 1.000000000000e+00 2.023000000000e+03 0.000000000000e+00
    2.400000000000e+00 0.000000000000e+00-1.816079020500e-08 6.800000000000e+01
    5.256060000000e+05 4.000000000000e+00
25 18 10 20  4  0  0.0-6.643501110375e-04-5.684341886081e-12 0.000000000000e+00
    4.200000000000e+01-2.031250000000e+01 4.204818004690e-09 2.178784713346e+00
   -1.139938831329e-06 7.516415556893e-03 8.659437298775e-06 5.153580404282e+03
    5.328000000000e+05-1.192092895508e-07-1.068969784025e+00-1.247972249985e-07
    9.725738166547e-01 2.185937500000e+02 8.547238294211e-01-7.821397221160e-09
   -3.260850113210e-10 1.000000000000e+00 2.023000000000e+03 0.000000000000e+00
    2.400000000000e+00 0.000000000000e+00 5.587935447693e-09 4.200000000000e+01
    5.256060000000e+05 4.000000000000e+00
24 18 10 20  4  0  0.0-5.697831511497e-05-4.547473508865e-13 0.000000000000e+00
    5.300000000000e+01 1.700000000000e+01 5.398796310108e-09-2.107561333898e+00
    6.854534149170e-07 7.450761389919e-03 4.472211003304e-06 5.153617450714e+03
    5.328000000000e+05 1.005828380585e-07-2.165799966582e+00-1.173466444016e-07
    9.403480427790e-01 2.825000000000e+02 5.394829143260e-01-8.517854802842e-09
    1.546492989069e-10 1.000000000000e+00 2.023000000000e+03 0.000000000000e+00
    2.400000000000e+00 0.000000000000e+00 2.793967723846e-09 5.300000000000e+01
    5.256060000000e+05 4.000000000000e+00
27 18 10 20  4  0  0.0-7.292721420527e-06-4.547473508865e-12 0.000000000000e+00
    4.200000000000e+01 5.768750000000e+01 4.083384375064e-09-2.879810034733e-01
    2.868473529816e-06 6.097029545344e-03 8.232891559601e-06 5.153701595306e+03
    5.328000000000e+05 7.264316082001e-08-2.891431690022e-02 7.450580596924e-08
    9.783645423417e-01 2.298125000000e+02 4.445207090775e-01-7.998904615055e-09
    1.303625729816e-10 1.000000000000e+00 2.023000000000e+03 0.000000000000e+00
    2.400000000000e+00 0.000000000000e+00 1.862645149231e-09 4.200000000000e+01
    5.256060000000e+05 4.000000000000e+00
14 18 10 20  4  0  0.0-9.657628834248e-05 3.410605131648e-13 0.000000000000e+00
    8.300000000000e+01 4.596875000000e+01 4.588048253483e-09-5.565100738612e-01
    2.503395080566e-06 1.001810585149e-02 9.493902325630e-06 5.153640140533e+03
    5.328000000000e+05-6.146728992462e-08-3.089508692815e+00 1.583248376846e-07
    9.612347459369e-01 2.017187500000e+02-1.944257323310e+00-8.185340952306e-09
    4.378753821244e-10 1.000000000000e+00 2.023000000000e+03 0.000000000000e+00
    3.400000000000e+00 0.000000000000e+00-9.778887033463e-09 8.300000000000e+01
    5.256060000000e+05 4.000000000000e+00
13 18 10 20  4  0  0.0-8.664559572935e-05 9.094947017729e-13 0.000000000000e+00
    8.400000000000e+01 4.234375000000e+01 4.322322899241e-09-1.471719601543e+00
    2.313405275345e-06 3.504903288558e-03 9.104609489441e-06 5.153669631958e+03
    5.328000000000e+05 1.117587089539e-08-3.046634329463e+00 4.470348358154e-08
    9.686762722721e-01 2.083437500000e+02 1.437327314749e+00-7.900329080417e-09
    3.907305612105e-10 1.000000000000e+00 2.023000000000e+03 0.000000000000e+00
    2.400000000000e+00 0.000000000000e+00-1.117587089539e-08 8.400000000000e+01
    5.256060000000e+05 4.000000000000e+00
23 18 10 20  4  0  0.0-2.082879655063e-04 9.094947017729e-13 0.000000000000e+00
    4.400000000000e+01 4.225000000000e+01 4.770198697923e-09-1.685017727135e+00
    2.034008502960e-06 1.263086462859e-02 9.473413228989e-06 5.153714239120e+03
    5.328000000000e+05 2.365559339523e-07 3.099713672865e+00-9.313225746155e-08
    9.438654010854e-01 1.814062500000e+02-2.323556242175e+00-7.979618097409e-09
    5.139499795082e-10 1.000000000000e+00 2.023000000000e+03 0.000000000000e+00
    2.400000000000e+00 0.000000000000e+00-2.002343535423e-08 4.400000000000e+01
    5.256060000000e+05 4.000000000000e+00
15 18 10 20  4  0  0.0-3.425278700888e-04 1.136868377216e-12 0.000000000000e+00
    4.300000000000e+01 3.137500000000e+01 5.123070539309e-09-1.203250525426e+00
    1.724809408188e-06 1.088431163225e-02 9.348616003990e-06 5.153582798004e+03
    5.328000000000e+05 2.384185791016e-07 3.028351711187e+00 5.587935447693e-09
    9.285616541372e-01 1.759687500000e+02 7.187125451709e-01-8.288202379754e-09
    3.464430021702e-10 1.000000000000e+00 2.023000000000e+03 0.000000000000e+00
    2.400000000000e+00 0.000000000000e+00-1.117587089539e-08 4.300000000000e+01
    5.256060000000e+05 4.000000000000e+00
21 18 10 20  4  0  0.0-3.184070810676e-04 6.252776074689e-12 0.000000000000e+00
    7.200000000000e+01-1.200000000000e+01 4.918061999880e-09 2.043324576167e+00
   -1.011416316032e-06 2.438952506054e-02 2.795830368996e-06 5.153605197906e+03
    5.328000000000e+05 4.041939973831e-07 9.684013533920e-01-2.011656761169e-07
    9.454756481815e-01 3.109062500000e+02-1.519211398098e+00-8.135338869518e-09
   -4.250177036933e-11 1.000000000000e+00 2.023000000000e+03 0.000000000000e+00
    3.400000000000e+00 0.000000000000e+00-9.778887033463e-09 7.200000000000e+01
    5.256060000000e+05 4.000000000000e+00
29 18 10 20  4  0  0.0 3.534350544214e-04-7.617018127348e-12 0.000000000000e+00
    3.600000000000e+01 5.178125000000e+01 3.889090567661e-09 2.466244659046e-01
    2.644956111908e-06 7.260587299243e-04 8.223578333855e-06 5.153617774963e+03
    5.328000000000e+05-2.607703208923e-08 3.673997041295e-02 2.980232238770e-08
    9.850869756837e-01 2.333750000000e+02 1.658702278351e+00-7.791038813753e-09
    1.578637185147e-10 1.000000000000e+00 2.023000000000e+03 0.000000000000e+00
    2.400000000000e+00 0.000000000000e+00-1.024454832077e-08 3.600000000000e+01
    5.256060000000e+05 4.000000000000e+00
19 18 10 20  4  0  0.0-3.918772563338e-04 3.637978807092e-12 0.000000000000e+00
    7.800000000000e+01 5.181250000000e+01 4.039096816024e-09 2.459847041794e+00
    2.531334757805e-06 9.548142435960e-03 7.903203368187e-06 5.153605331421e+03
    5.328000000000e+05 4.284083843231e-08 7.259510799192e-02-1.471489667892e-07
    9.813682788879e-01 2.333125000000e+02 1.302105830712e+00-7.724607475193e-09
    1.232194182976e-10 1.000000000000e+00 2.023000000000e+03 0.000000000000e+00
    3.400000000000e+00 0.000000000000e+00-1.536682248116e-08 7.800000000000e+01
    5.256060000000e+05 4.000000000000e+00
32 18 10 20  4  0  0.0-3.870115615427e-04 1.284661266254e-11 0.000000000000e+00
    8.400000000000e+01 4.000000000000e+01 4.568047420368e-09 4.674843609201e-01
    1.993030309677e-06 2.314831595868e-03 9.886920452118e-06 5.153719305038e+03
    5.328000000000e+05-1.117587089539e-08 3.108378242602e+00 9.872019290924e-08
    9.573843631073e-01 1.895312500000e+02-2.579545929265e+00-8.023905656449e-09
    3.832302487924e-10 1.000000000000e+00 2.023000000000e+03 0.000000000000e+00
    2.400000000000e+00 0.000000000000e+00 4.656612873077e-10 8.400000000000e+01
    5.256060000000e+05 4.000000000000e+00
